HAWK-A                  
1 43765U 18099H   26068.67628545  .00008617  00000+0  36104-3 0  9995
2 43765  97.4051 122.2425 0034260 275.5523  84.1807 15.23231043397949
STARLINK-31563          
1 59190U 24045N   26068.42750084 -.00005958  00000+0 -20698-3 0  9997
2 59190  43.0040  93.8225 0001830 260.4348  99.6297 15.27602366113123
